<?xml version="1.0" encoding="UTF-8"?>
<kml xmlns="http://www.opengis.net/kml/2.2"><Document>
<name>Ireland Road Trip 20-27 September 2026</name>
<Style id="day1"><IconStyle><scale>1.1</scale></IconStyle><LineStyle><color>ff2e8b57</color><width>4</width></LineStyle></Style>
<Style id="day2"><IconStyle><scale>1.1</scale></IconStyle><LineStyle><color>ffff8c00</color><width>4</width></LineStyle></Style>
<Style id="day3"><IconStyle><scale>1.1</scale></IconStyle><LineStyle><color>ff4169e1</color><width>4</width></LineStyle></Style>
<Style id="day4"><IconStyle><scale>1.1</scale></IconStyle><LineStyle><color>ff8a2be2</color><width>4</width></LineStyle></Style>
<Style id="day5"><IconStyle><scale>1.1</scale></IconStyle><LineStyle><color>ff008080</color><width>4</width></LineStyle></Style>
<Style id="day6"><IconStyle><scale>1.1</scale></IconStyle><LineStyle><color>ffb22222</color><width>4</width></LineStyle></Style>
<Style id="day7"><IconStyle><scale>1.1</scale></IconStyle><LineStyle><color>ff6b8e23</color><width>4</width></LineStyle></Style>
<Style id="day8"><IconStyle><scale>1.1</scale></IconStyle><LineStyle><color>ff696969</color><width>4</width></LineStyle></Style>
<Folder><name>Day 1</name>
<Placemark><name>1. Dublin Airport</name><styleUrl>#day1</styleUrl><description><![CDATA[<b>Airport</b><br/>Arrival, hire-car collection and starting point.<br/><b>Indicative cost:</b> Car hire dependent<br/><b>Suggested time:</b> Allow 45-75 min<br/><b>Booking:</b> Check rental desk and shuttle details<br/><b>Address/query:</b> Dublin Airport, Ireland]]></description><Point><coordinates>-6.2499,53.4264,0</coordinates></Point></Placemark>
<Placemark><name>2. Malahide Castle &amp; Gardens</name><styleUrl>#day1</styleUrl><description><![CDATA[<b>Castle</b><br/>An 800-year-old castle estate with guided castle visits, gardens and parkland.<br/><b>Indicative cost:</b> Check current ticket type<br/><b>Suggested time:</b> 60-90 min<br/><b>Booking:</b> Useful rather than essential<br/><b>Address/query:</b> Malahide Castle and Gardens, Back Road, Malahide, Co. Dublin]]></description><Point><coordinates>-6.1642,53.4448,0</coordinates></Point></Placemark>
<Placemark><name>3. Brú na Bóinne Visitor Centre / Newgrange</name><styleUrl>#day1</styleUrl><description><![CDATA[<b>Ancient site</b><br/>UNESCO World Heritage landscape containing Newgrange, Knowth and Dowth. Tours depart from the visitor centre; do not drive directly to Newgrange.<br/><b>Indicative cost:</b> Check official booking page<br/><b>Suggested time:</b> 2-2.5 hrs<br/><b>Booking:</b> Essential - September tickets normally released 30 days ahead<br/><b>Address/query:</b> Brú na Bóinne Visitor Centre, Donore, Co. Meath, A92 EH5C]]></description><Point><coordinates>-6.4463,53.6947,0</coordinates></Point></Placemark>
<Placemark><name>4. Monasterboice High Crosses</name><styleUrl>#day1</styleUrl><description><![CDATA[<b>Monastic site</b><br/>Early Christian monastic ruins noted for Muiredach's High Cross and a round tower.<br/><b>Indicative cost:</b> Free<br/><b>Suggested time:</b> 30-40 min<br/><b>Booking:</b> No<br/><b>Address/query:</b> Monasterboice, Co. Louth, Ireland]]></description><Point><coordinates>-6.4174,53.7778,0</coordinates></Point></Placemark>
<Placemark><name>5. Carlingford</name><styleUrl>#day1</styleUrl><description><![CDATA[<b>Town / viewpoint</b><br/>Medieval coastal village beneath the Cooley Mountains, overlooking Carlingford Lough.<br/><b>Indicative cost:</b> Free to explore<br/><b>Suggested time:</b> 60-90 min<br/><b>Booking:</b> No<br/><b>Address/query:</b> Carlingford, Co. Louth, Ireland]]></description><Point><coordinates>-6.1867,54.0407,0</coordinates></Point></Placemark>
<Placemark><name>6. Ballymascanlon Hotel</name><styleUrl>#day1</styleUrl><description><![CDATA[<b>Accommodation</b><br/>Overnight accommodation.<br/><b>Indicative cost:</b> Booked separately<br/><b>Suggested time:</b> -<br/><b>Booking:</b> Confirm parking and check-in<br/><b>Address/query:</b> Ballymascanlon Hotel and Golf Resort, Dundalk, Co. Louth]]></description><Point><coordinates>-6.3433,54.0425,0</coordinates></Point></Placemark>
<Placemark><name>Day 1 overview line (not road-following)</name><styleUrl>#day1</styleUrl><LineString><tessellate>1</tessellate><coordinates>-6.2499,53.4264,0 -6.1642,53.4448,0 -6.4463,53.6947,0 -6.4174,53.7778,0 -6.1867,54.0407,0 -6.3433,54.0425,0</coordinates></LineString></Placemark>
</Folder>
<Folder><name>Day 2</name>
<Placemark><name>1. Ballymascanlon Hotel</name><styleUrl>#day2</styleUrl><description><![CDATA[<b>Accommodation</b><br/>Day-two departure point.<br/><b>Indicative cost:</b> -<br/><b>Suggested time:</b> -<br/><b>Booking:</b> -<br/><b>Address/query:</b> Ballymascanlon Hotel and Golf Resort, Dundalk, Co. Louth]]></description><Point><coordinates>-6.3433,54.0425,0</coordinates></Point></Placemark>
<Placemark><name>2. Clonmacnoise Monastic Site</name><styleUrl>#day2</styleUrl><description><![CDATA[<b>Monastic site</b><br/>Major early Christian settlement on the River Shannon with ruined churches, round towers and high crosses. The visitor centre has recently been affected by essential works, so recheck before travelling.<br/><b>Indicative cost:</b> Adult listed at €8 when fully operating<br/><b>Suggested time:</b> 75-105 min<br/><b>Booking:</b> Recheck visitor-centre status<br/><b>Address/query:</b> Clonmacnoise Monastic Site, Shannonbridge, Co. Offaly]]></description><Point><coordinates>-7.9861,53.3263,0</coordinates></Point></Placemark>
<Placemark><name>3. Athlone Castle</name><styleUrl>#day2</styleUrl><description><![CDATA[<b>Castle / town</b><br/>A compact riverside castle and museum beside the historic Shannon crossing; easy to combine with lunch.<br/><b>Indicative cost:</b> Check current admission<br/><b>Suggested time:</b> 45-60 min optional<br/><b>Booking:</b> Usually not essential<br/><b>Address/query:</b> Athlone Castle Visitor Centre, Castle Street, Athlone]]></description><Point><coordinates>-7.942,53.4235,0</coordinates></Point></Placemark>
<Placemark><name>4. The Sliding Rock Inn</name><styleUrl>#day2</styleUrl><description><![CDATA[<b>Accommodation</b><br/>Galway accommodation for two nights.<br/><b>Indicative cost:</b> Booked separately<br/><b>Suggested time:</b> -<br/><b>Booking:</b> Confirm parking<br/><b>Address/query:</b> The Sliding Rock Inn, Newcastle Road, Galway]]></description><Point><coordinates>-9.0612,53.2737,0</coordinates></Point></Placemark>
<Placemark><name>5. Galway Latin Quarter</name><styleUrl>#day2</styleUrl><description><![CDATA[<b>City walk</b><br/>Pedestrian-friendly historic centre around Shop Street, Quay Street and the Spanish Arch.<br/><b>Indicative cost:</b> Free<br/><b>Suggested time:</b> 2 hrs to evening<br/><b>Booking:</b> Reserve dinner only if preferred<br/><b>Address/query:</b> Latin Quarter, Galway, Ireland]]></description><Point><coordinates>-9.0555,53.271,0</coordinates></Point></Placemark>
<Placemark><name>Day 2 overview line (not road-following)</name><styleUrl>#day2</styleUrl><LineString><tessellate>1</tessellate><coordinates>-6.3433,54.0425,0 -7.9861,53.3263,0 -7.942,53.4235,0 -9.0612,53.2737,0 -9.0555,53.271,0</coordinates></LineString></Placemark>
</Folder>
<Folder><name>Day 3</name>
<Placemark><name>1. The Sliding Rock Inn</name><styleUrl>#day3</styleUrl><description><![CDATA[<b>Accommodation</b><br/>Start and finish of the Connemara loop.<br/><b>Indicative cost:</b> -<br/><b>Suggested time:</b> -<br/><b>Booking:</b> -<br/><b>Address/query:</b> The Sliding Rock Inn, Newcastle Road, Galway]]></description><Point><coordinates>-9.0612,53.2737,0</coordinates></Point></Placemark>
<Placemark><name>2. Oughterard</name><styleUrl>#day3</styleUrl><description><![CDATA[<b>Town / coffee</b><br/>Small gateway town on the shores of Lough Corrib; planned coffee break.<br/><b>Indicative cost:</b> Food/drink only<br/><b>Suggested time:</b> 20 min<br/><b>Booking:</b> No<br/><b>Address/query:</b> Oughterard, Co. Galway, Ireland]]></description><Point><coordinates>-9.323,53.428,0</coordinates></Point></Placemark>
<Placemark><name>3. Connemara National Park Visitor Centre</name><styleUrl>#day3</styleUrl><description><![CDATA[<b>National park</b><br/>Free national park with trails ranging from short lower walks to the steeper Diamond Hill circuit.<br/><b>Indicative cost:</b> Free<br/><b>Suggested time:</b> 1.5-3 hrs<br/><b>Booking:</b> No; weather dependent<br/><b>Address/query:</b> Connemara National Park Visitor Centre, Letterfrack, Co. Galway]]></description><Point><coordinates>-9.9486,53.5538,0</coordinates></Point></Placemark>
<Placemark><name>4. Kylemore Abbey &amp; Victorian Walled Garden</name><styleUrl>#day3</styleUrl><description><![CDATA[<b>Abbey / garden</b><br/>Victorian lakeside castle, Benedictine abbey, neo-Gothic church and restored walled garden.<br/><b>Indicative cost:</b> Check current online rate<br/><b>Suggested time:</b> 2-3 hrs<br/><b>Booking:</b> Recommended<br/><b>Address/query:</b> Kylemore Abbey, Connemara, Co. Galway, H91 VR90]]></description><Point><coordinates>-9.8899,53.5618,0</coordinates></Point></Placemark>
<Placemark><name>5. Clifden</name><styleUrl>#day3</styleUrl><description><![CDATA[<b>Town</b><br/>Colourful market town often described as the capital of Connemara.<br/><b>Indicative cost:</b> Free to explore<br/><b>Suggested time:</b> 45-60 min<br/><b>Booking:</b> No<br/><b>Address/query:</b> Clifden, Co. Galway, Ireland]]></description><Point><coordinates>-10.019,53.4889,0</coordinates></Point></Placemark>
<Placemark><name>6. Sky Road Upper Viewpoint</name><styleUrl>#day3</styleUrl><description><![CDATA[<b>Viewpoint</b><br/>High-level viewpoint across the Atlantic islands and the Connemara coast.<br/><b>Indicative cost:</b> Free<br/><b>Suggested time:</b> 20-40 min<br/><b>Booking:</b> No<br/><b>Address/query:</b> Sky Road Wild Atlantic View Point, Clifden, Co. Galway]]></description><Point><coordinates>-10.0979,53.5082,0</coordinates></Point></Placemark>
<Placemark><name>7. The Sliding Rock Inn</name><styleUrl>#day3</styleUrl><description><![CDATA[<b>Accommodation</b><br/>Return to Galway.<br/><b>Indicative cost:</b> -<br/><b>Suggested time:</b> -<br/><b>Booking:</b> -<br/><b>Address/query:</b> The Sliding Rock Inn, Newcastle Road, Galway]]></description><Point><coordinates>-9.0612,53.2737,0</coordinates></Point></Placemark>
<Placemark><name>Day 3 overview line (not road-following)</name><styleUrl>#day3</styleUrl><LineString><tessellate>1</tessellate><coordinates>-9.0612,53.2737,0 -9.323,53.428,0 -9.9486,53.5538,0 -9.8899,53.5618,0 -10.019,53.4889,0 -10.0979,53.5082,0 -9.0612,53.2737,0</coordinates></LineString></Placemark>
</Folder>
<Folder><name>Day 4</name>
<Placemark><name>1. The Sliding Rock Inn</name><styleUrl>#day4</styleUrl><description><![CDATA[<b>Accommodation</b><br/>Departure point.<br/><b>Indicative cost:</b> -<br/><b>Suggested time:</b> -<br/><b>Booking:</b> -<br/><b>Address/query:</b> The Sliding Rock Inn, Newcastle Road, Galway]]></description><Point><coordinates>-9.0612,53.2737,0</coordinates></Point></Placemark>
<Placemark><name>2. Cliffs of Moher Experience</name><styleUrl>#day4</styleUrl><description><![CDATA[<b>Cliffs / visitor centre</b><br/>Ireland's best-known sea cliffs, with paved viewing areas, exhibition and parking included in the visitor-experience ticket.<br/><b>Indicative cost:</b> Dynamic/time-based; check online<br/><b>Suggested time:</b> 2-2.5 hrs<br/><b>Booking:</b> Recommended; September hours listed as 08:00-19:00<br/><b>Address/query:</b> Cliffs of Moher Experience, Liscannor, Co. Clare, V95 KN9T]]></description><Point><coordinates>-9.4265,52.9719,0</coordinates></Point></Placemark>
<Placemark><name>3. Doolin</name><styleUrl>#day4</styleUrl><description><![CDATA[<b>Village / lunch</b><br/>Small coastal village known for traditional music and ferries to the Aran Islands.<br/><b>Indicative cost:</b> Free to explore<br/><b>Suggested time:</b> 60 min<br/><b>Booking:</b> Lunch booking optional<br/><b>Address/query:</b> Doolin, Co. Clare, Ireland]]></description><Point><coordinates>-9.3774,53.0151,0</coordinates></Point></Placemark>
<Placemark><name>4. Poulnabrone Dolmen</name><styleUrl>#day4</styleUrl><description><![CDATA[<b>Ancient site</b><br/>Neolithic portal tomb set within the limestone pavement of the Burren; a useful short scenic stop.<br/><b>Indicative cost:</b> Free<br/><b>Suggested time:</b> 20-30 min<br/><b>Booking:</b> No<br/><b>Address/query:</b> Poulnabrone Dolmen, Co. Clare, Ireland]]></description><Point><coordinates>-9.1405,53.0486,0</coordinates></Point></Placemark>
<Placemark><name>5. Adare</name><styleUrl>#day4</styleUrl><description><![CDATA[<b>Village</b><br/>Historic village known for thatched cottages, stone buildings and riverside remains.<br/><b>Indicative cost:</b> Free to explore<br/><b>Suggested time:</b> 45-60 min<br/><b>Booking:</b> No<br/><b>Address/query:</b> Adare, Co. Limerick, Ireland]]></description><Point><coordinates>-8.7907,52.564,0</coordinates></Point></Placemark>
<Placemark><name>6. Foley's Townhouse, Killarney</name><styleUrl>#day4</styleUrl><description><![CDATA[<b>Accommodation</b><br/>Killarney accommodation for two nights.<br/><b>Indicative cost:</b> Booked separately<br/><b>Suggested time:</b> -<br/><b>Booking:</b> Confirm parking arrangements<br/><b>Address/query:</b> Foley's Townhouse, High Street, Killarney, Co. Kerry]]></description><Point><coordinates>-9.507,52.0598,0</coordinates></Point></Placemark>
<Placemark><name>Day 4 overview line (not road-following)</name><styleUrl>#day4</styleUrl><LineString><tessellate>1</tessellate><coordinates>-9.0612,53.2737,0 -9.4265,52.9719,0 -9.3774,53.0151,0 -9.1405,53.0486,0 -8.7907,52.564,0 -9.507,52.0598,0</coordinates></LineString></Placemark>
</Folder>
<Folder><name>Day 5</name>
<Placemark><name>1. Foley's Townhouse, Killarney</name><styleUrl>#day5</styleUrl><description><![CDATA[<b>Accommodation</b><br/>Start and finish of the Ring of Kerry day.<br/><b>Indicative cost:</b> -<br/><b>Suggested time:</b> -<br/><b>Booking:</b> -<br/><b>Address/query:</b> Foley's Townhouse, High Street, Killarney, Co. Kerry]]></description><Point><coordinates>-9.507,52.0598,0</coordinates></Point></Placemark>
<Placemark><name>2. Ladies View</name><styleUrl>#day5</styleUrl><description><![CDATA[<b>Viewpoint</b><br/>Classic elevated view across the Lakes of Killarney.<br/><b>Indicative cost:</b> Free<br/><b>Suggested time:</b> 15-25 min<br/><b>Booking:</b> No<br/><b>Address/query:</b> Ladies View, Killarney National Park, Co. Kerry]]></description><Point><coordinates>-9.5903,51.9685,0</coordinates></Point></Placemark>
<Placemark><name>3. Moll's Gap</name><styleUrl>#day5</styleUrl><description><![CDATA[<b>Mountain pass</b><br/>Mountain pass with views over the MacGillycuddy's Reeks and surrounding valleys.<br/><b>Indicative cost:</b> Free<br/><b>Suggested time:</b> 15-25 min<br/><b>Booking:</b> No<br/><b>Address/query:</b> Moll's Gap, Co. Kerry, Ireland]]></description><Point><coordinates>-9.6552,51.9389,0</coordinates></Point></Placemark>
<Placemark><name>4. Kenmare</name><styleUrl>#day5</styleUrl><description><![CDATA[<b>Town</b><br/>Attractive heritage town at the head of Kenmare Bay.<br/><b>Indicative cost:</b> Free to explore<br/><b>Suggested time:</b> 45-60 min<br/><b>Booking:</b> No<br/><b>Address/query:</b> Kenmare, Co. Kerry, Ireland]]></description><Point><coordinates>-9.583,51.88,0</coordinates></Point></Placemark>
<Placemark><name>5. Sneem</name><styleUrl>#day5</styleUrl><description><![CDATA[<b>Village</b><br/>Colourful village split by the River Sneem, with small squares and riverside walks.<br/><b>Indicative cost:</b> Free<br/><b>Suggested time:</b> 30-45 min<br/><b>Booking:</b> No<br/><b>Address/query:</b> Sneem, Co. Kerry, Ireland]]></description><Point><coordinates>-9.8983,51.8377,0</coordinates></Point></Placemark>
<Placemark><name>6. Waterville</name><styleUrl>#day5</styleUrl><description><![CDATA[<b>Coastal stop</b><br/>Atlantic-facing village on the Iveragh Peninsula, suitable for lunch and a seafront walk.<br/><b>Indicative cost:</b> Free to explore<br/><b>Suggested time:</b> 60 min<br/><b>Booking:</b> Lunch booking optional<br/><b>Address/query:</b> Waterville, Co. Kerry, Ireland]]></description><Point><coordinates>-10.1716,51.8288,0</coordinates></Point></Placemark>
<Placemark><name>7. Derrynane Beach</name><styleUrl>#day5</styleUrl><description><![CDATA[<b>Beach / viewpoint</b><br/>Sheltered sandy beach and coastal landscape near Derrynane National Historic Park.<br/><b>Indicative cost:</b> Free; parking may apply<br/><b>Suggested time:</b> 30-60 min<br/><b>Booking:</b> No<br/><b>Address/query:</b> Derrynane Beach, Caherdaniel, Co. Kerry]]></description><Point><coordinates>-10.1283,51.7695,0</coordinates></Point></Placemark>
<Placemark><name>8. Cahersiveen</name><styleUrl>#day5</styleUrl><description><![CDATA[<b>Town / viewpoint</b><br/>Optional west-coast stop and gateway to Skellig Coast viewpoints.<br/><b>Indicative cost:</b> Free<br/><b>Suggested time:</b> 20-40 min<br/><b>Booking:</b> No<br/><b>Address/query:</b> Cahersiveen, Co. Kerry, Ireland]]></description><Point><coordinates>-10.2229,51.9488,0</coordinates></Point></Placemark>
<Placemark><name>9. Foley's Townhouse, Killarney</name><styleUrl>#day5</styleUrl><description><![CDATA[<b>Accommodation</b><br/>Return to Killarney.<br/><b>Indicative cost:</b> -<br/><b>Suggested time:</b> -<br/><b>Booking:</b> -<br/><b>Address/query:</b> Foley's Townhouse, High Street, Killarney, Co. Kerry]]></description><Point><coordinates>-9.507,52.0598,0</coordinates></Point></Placemark>
<Placemark><name>Day 5 overview line (not road-following)</name><styleUrl>#day5</styleUrl><LineString><tessellate>1</tessellate><coordinates>-9.507,52.0598,0 -9.5903,51.9685,0 -9.6552,51.9389,0 -9.583,51.88,0 -9.8983,51.8377,0 -10.1716,51.8288,0 -10.1283,51.7695,0 -10.2229,51.9488,0 -9.507,52.0598,0</coordinates></LineString></Placemark>
</Folder>
<Folder><name>Day 6</name>
<Placemark><name>1. Foley's Townhouse, Killarney</name><styleUrl>#day6</styleUrl><description><![CDATA[<b>Accommodation</b><br/>Departure point.<br/><b>Indicative cost:</b> -<br/><b>Suggested time:</b> -<br/><b>Booking:</b> -<br/><b>Address/query:</b> Foley's Townhouse, High Street, Killarney, Co. Kerry]]></description><Point><coordinates>-9.507,52.0598,0</coordinates></Point></Placemark>
<Placemark><name>2. Rock of Cashel</name><styleUrl>#day6</styleUrl><description><![CDATA[<b>Medieval site</b><br/>Hilltop medieval complex containing a round tower, Gothic cathedral and Cormac's Chapel.<br/><b>Indicative cost:</b> Adult €8; family €20 listed<br/><b>Suggested time:</b> 1-1.5 hrs<br/><b>Booking:</b> Check Cormac's Chapel tour availability<br/><b>Address/query:</b> Rock of Cashel, St Patrick's Rock, Cashel, Co. Tipperary, E25 KX44]]></description><Point><coordinates>-7.8905,52.5201,0</coordinates></Point></Placemark>
<Placemark><name>3. Cahir Castle</name><styleUrl>#day6</styleUrl><description><![CDATA[<b>Castle</b><br/>Large, well-preserved medieval castle occupying a rocky island in the River Suir.<br/><b>Indicative cost:</b> Check official rate<br/><b>Suggested time:</b> 60-75 min<br/><b>Booking:</b> Usually not essential<br/><b>Address/query:</b> Cahir Castle, Castle Street, Cahir, Co. Tipperary, E21 P652]]></description><Point><coordinates>-7.9256,52.3758,0</coordinates></Point></Placemark>
<Placemark><name>4. JB's Bar &amp; Guest House</name><styleUrl>#day6</styleUrl><description><![CDATA[<b>Accommodation</b><br/>Kilkenny accommodation.<br/><b>Indicative cost:</b> Booked separately<br/><b>Suggested time:</b> -<br/><b>Booking:</b> Confirm parking<br/><b>Address/query:</b> JB's Bar and Guesthouse, Kilkenny, Ireland]]></description><Point><coordinates>-7.2523,52.6545,0</coordinates></Point></Placemark>
<Placemark><name>5. Kilkenny Castle</name><styleUrl>#day6</styleUrl><description><![CDATA[<b>Castle</b><br/>Former Butler family residence overlooking the River Nore; the extensive park is free.<br/><b>Indicative cost:</b> Check current castle admission; park free<br/><b>Suggested time:</b> 60-90 min<br/><b>Booking:</b> Optional online booking<br/><b>Address/query:</b> Kilkenny Castle, The Parade, Kilkenny, R95 YRK1]]></description><Point><coordinates>-7.2494,52.6506,0</coordinates></Point></Placemark>
<Placemark><name>6. Medieval Mile</name><styleUrl>#day6</styleUrl><description><![CDATA[<b>City walk</b><br/>Walkable historic spine linking Kilkenny Castle with St Canice's Cathedral.<br/><b>Indicative cost:</b> Free to walk<br/><b>Suggested time:</b> 1-2 hrs<br/><b>Booking:</b> No<br/><b>Address/query:</b> Medieval Mile, Kilkenny, Ireland]]></description><Point><coordinates>-7.2524,52.6534,0</coordinates></Point></Placemark>
<Placemark><name>7. Kyteler's Inn</name><styleUrl>#day6</styleUrl><description><![CDATA[<b>Pub / history</b><br/>Historic inn associated with the 14th-century trial of Alice Kyteler; suggested evening venue.<br/><b>Indicative cost:</b> Food/drink only<br/><b>Suggested time:</b> Evening<br/><b>Booking:</b> Dinner booking advisable<br/><b>Address/query:</b> Kyteler's Inn, St Kieran's Street, Kilkenny]]></description><Point><coordinates>-7.253,52.6532,0</coordinates></Point></Placemark>
<Placemark><name>Day 6 overview line (not road-following)</name><styleUrl>#day6</styleUrl><LineString><tessellate>1</tessellate><coordinates>-9.507,52.0598,0 -7.8905,52.5201,0 -7.9256,52.3758,0 -7.2523,52.6545,0 -7.2494,52.6506,0 -7.2524,52.6534,0 -7.253,52.6532,0</coordinates></LineString></Placemark>
</Folder>
<Folder><name>Day 7</name>
<Placemark><name>1. JB's Bar &amp; Guest House</name><styleUrl>#day7</styleUrl><description><![CDATA[<b>Accommodation</b><br/>Day-seven departure point after a final Kilkenny morning.<br/><b>Indicative cost:</b> -<br/><b>Suggested time:</b> -<br/><b>Booking:</b> -<br/><b>Address/query:</b> JB's Bar and Guesthouse, Kilkenny, Ireland]]></description><Point><coordinates>-7.2523,52.6545,0</coordinates></Point></Placemark>
<Placemark><name>2. Kilkenny Castle</name><styleUrl>#day7</styleUrl><description><![CDATA[<b>Castle</b><br/>Morning castle visit and gardens if not completed on Friday.<br/><b>Indicative cost:</b> Check current admission<br/><b>Suggested time:</b> 1.5-2 hrs<br/><b>Booking:</b> Optional<br/><b>Address/query:</b> Kilkenny Castle, The Parade, Kilkenny, R95 YRK1]]></description><Point><coordinates>-7.2494,52.6506,0</coordinates></Point></Placemark>
<Placemark><name>3. Glendalough Monastic Site</name><styleUrl>#day7</styleUrl><description><![CDATA[<b>Monastic site / lakes</b><br/>Early medieval monastic settlement in a glacial valley, with round tower, churches and lakeside walks.<br/><b>Indicative cost:</b> Open monastic site free; visitor centre/parking may charge<br/><b>Suggested time:</b> 1.5-2.5 hrs<br/><b>Booking:</b> Optional; allow weekend parking time<br/><b>Address/query:</b> Glendalough Monastic Site and Visitor Centre, Co. Wicklow, A98 HC80]]></description><Point><coordinates>-6.3273,53.0104,0</coordinates></Point></Placemark>
<Placemark><name>4. Dublin Airport Hotel Area</name><styleUrl>#day7</styleUrl><description><![CDATA[<b>Accommodation</b><br/>Stay close to the airport for the 11:15 departure next morning.<br/><b>Indicative cost:</b> Hotel dependent<br/><b>Suggested time:</b> -<br/><b>Booking:</b> Book in advance<br/><b>Address/query:</b> Dublin Airport, Ireland]]></description><Point><coordinates>-6.24,53.423,0</coordinates></Point></Placemark>
<Placemark><name>Day 7 overview line (not road-following)</name><styleUrl>#day7</styleUrl><LineString><tessellate>1</tessellate><coordinates>-7.2523,52.6545,0 -7.2494,52.6506,0 -6.3273,53.0104,0 -6.24,53.423,0</coordinates></LineString></Placemark>
</Folder>
<Folder><name>Day 8</name>
<Placemark><name>1. Dublin Airport Hotel Area</name><styleUrl>#day8</styleUrl><description><![CDATA[<b>Accommodation</b><br/>Departure morning.<br/><b>Indicative cost:</b> -<br/><b>Suggested time:</b> -<br/><b>Booking:</b> -<br/><b>Address/query:</b> Dublin Airport, Ireland]]></description><Point><coordinates>-6.24,53.423,0</coordinates></Point></Placemark>
<Placemark><name>2. Dublin Airport</name><styleUrl>#day8</styleUrl><description><![CDATA[<b>Airport</b><br/>Return hire car, bag drop and security for 11:15 flight.<br/><b>Indicative cost:</b> Car-hire fuel/fees dependent<br/><b>Suggested time:</b> Arrive around 08:15-08:30<br/><b>Booking:</b> Verify terminal and rental return<br/><b>Address/query:</b> Dublin Airport, Ireland]]></description><Point><coordinates>-6.2499,53.4264,0</coordinates></Point></Placemark>
<Placemark><name>Day 8 overview line (not road-following)</name><styleUrl>#day8</styleUrl><LineString><tessellate>1</tessellate><coordinates>-6.24,53.423,0 -6.2499,53.4264,0</coordinates></LineString></Placemark>
</Folder>
</Document></kml>